NORAD_CAT_ID,OBJECT_NAME,OBJECT_TYPE,EPOCH,MEAN_MOTION,ECCENTRICITY,INCLINATION,RA_OF_ASC_NODE,ARG_OF_PERICENTER,MEAN_ANOMALY,BSTAR,MEAN_MOTION_DOT,MEAN_MOTION_DDOT,TLE_LINE0,TLE_LINE1,TLE_LINE2,SEMIMAJOR_AXIS,PERIOD,APOGEE,PERIGEE,DECAYED
50165.0,STARLINK-3298,PAYLOAD,2022-04-09 14:00:01,15.08818944,0.0002318,53.219,199.1172,36.06,49.5336,0.0001268,1.729e-05,0.0,0 STARLINK-3298,1 50165U 21125K   22099.58334491  .00001729  00000-0  12680-3 0  9996,2 50165  53.2190 199.1172 0002318  36.0600  49.5336 15.08818944  3605,6917.945,95.439,541.413,538.206,0.0
50165.0,STARLINK-3298,PAYLOAD,2022-04-09 16:00:00,15.08811533,0.0002344,53.219,198.7433,34.784,143.7149,0.0032929,0.00052469,0.0,0 STARLINK-3298,1 50165U 21125K   22099.66667824  .00052469  00000-0  32929-2 0  9998,2 50165  53.2190 198.7433 0002344  34.7840 143.7149 15.08811533 17487,6917.967,95.439,541.4540000000002,538.211,0.0
50165.0,STARLINK-3298,PAYLOAD,2022-04-09 22:00:00,15.08857002,0.0002266,53.2187,197.6202,35.5995,61.57899999999999,-0.00078745,-0.00012805,0.0,0 STARLINK-3298,1 50165U 21125K   22099.91667824 -.00012805  00000-0 -78745-3 0  9995,2 50165  53.2187 197.6202 0002266  35.5995  61.5790 15.08857002  3607,6917.828,95.436,541.261,538.126,0.0
50165.0,STARLINK-3298,PAYLOAD,2022-04-10 06:00:02,15.08836403,0.0002292,53.2176,196.1173,39.0707,69.7846,8.944799999999999e-05,1.135e-05,0.0,0 STARLINK-3298,1 50165U 21125K   22100.25002315  .00001135  00000-0  89448-4 0  9998,2 50165  53.2176 196.1173 0002292  39.0707  69.7846 15.08836403 17570,6917.891,95.438,541.342,538.1709999999998,0.0
50165.0,STARLINK-3298,PAYLOAD,2022-04-10 14:00:01,15.08836034,0.0002235,53.2189,194.6286,33.5686,86.7991,0.00046353,7.096e-05,0.0,0 STARLINK-3298,1 50165U 21125K   22100.58334491  .00007096  00000-0  46353-3 0  9996,2 50165  53.2189 194.6286 0002235  33.5686  86.7991 15.08836034  3603,6917.893,95.438,541.304,538.211,0.0
50165.0,STARLINK-3298,PAYLOAD,2022-04-10 22:00:00,15.08875223,0.0002136,53.2185,193.1314,31.9805,99.9974,-0.0028202,-0.00044937,0.0,0 STARLINK-3298,1 50165U 21125K   22100.91667824 -.00044937  00000-0 -28202-2 0  9991,2 50165  53.2185 193.1314 0002136  31.9805  99.9974 15.08875223  3600,6917.773,95.435,541.115,538.16,0.0
50165.0,STARLINK-3298,PAYLOAD,2022-04-11 14:00:01,15.08860223,0.00022,53.2187,190.1399,31.827,123.3554,-0.0020095,-0.00032146,0.0,0 STARLINK-3298,1 50165U 21125K   22101.58334491 -.00032146  00000-0 -20095-2 0  9997,2 50165  53.2187 190.1399 0002200  31.8270 123.3554 15.08860223 17772,6917.819,95.436,541.205,538.1619999999998,0.0
50165.0,STARLINK-3298,PAYLOAD,2022-04-11 22:00:00,15.08853585,0.0002148,53.2183,188.6425,33.4365,133.3513,-0.0064008,-0.00100776,0.0,0 STARLINK-3298,1 50165U 21125K   22101.91667824 -.00100776  00000-0 -64008-2 0  9990,2 50165  53.2183 188.6425 0002148  33.4365 133.3513 15.08853585  3598,6917.839,95.437,541.19,538.2180000000002,0.0
50165.0,STARLINK-3298,PAYLOAD,2022-04-12 14:00:01,15.08809996,0.0002411,53.2187,185.6514,37.612,152.2806,0.0016302,0.00025731,0.0,0 STARLINK-3298,1 50165U 21125K   22102.58334491  .00025731  00000-0  16302-2 0  9994,2 50165  53.2187 185.6514 0002411  37.6120 152.2806 15.08809996  3611,6917.972,95.439,541.505,538.169,0.0
50165.0,STARLINK-3298,PAYLOAD,2022-04-12 22:00:00,15.08842786,0.0002311,53.2185,184.1539,38.2519,163.2084,-0.0012882,-0.00020734,0.0,0 STARLINK-3298,1 50165U 21125K   22102.91667824 -.00020734  00000-0 -12882-2 0  9999,2 50165  53.2185 184.1539 0002311  38.2519 163.2084 15.08842786 17976,6917.871999999999,95.437,541.336,538.138,0.0
50165.0,STARLINK-3298,PAYLOAD,2022-04-13 04:00:00,15.0893281,0.0002381,53.2174,183.025,38.9733,81.2001,-0.0092245,-0.00144542,0.0,0 STARLINK-3298,1 50165U 21125K   22103.16667824 -.00144542  00000-0 -92245-2 0  9992,2 50165  53.2174 183.0250 0002381  38.9733  81.2001 15.08932810 18016,6917.597,95.432,541.109,537.815,0.0
50165.0,STARLINK-3298,PAYLOAD,2022-04-13 14:00:03,15.08835075,0.0002509,53.2189,181.1626,37.8318,186.95,0.0022984,0.00036477,0.0,0 STARLINK-3298,1 50165U 21125K   22103.58336806  .00036477  00000-0  22984-2 0  9999,2 50165  53.2189 181.1626 0002509  37.8318 186.9500 15.08835075 18075,6917.895,95.438,541.496,538.025,0.0
50165.0,STARLINK-3298,PAYLOAD,2022-04-13 22:00:00,15.08887083,0.0002362,53.2188,179.6649,38.004,198.2589,-0.0030329,-0.00048298,0.0,0 STARLINK-3298,1 50165U 21125K   22103.91667824 -.00048298  00000-0 -30329-2 0  9991,2 50165  53.2188 179.6649 0002362  38.0040 198.2589 15.08887083  3605,6917.736,95.435,541.235,537.9680000000002,0.0
50165.0,STARLINK-3298,PAYLOAD,2022-04-14 06:00:00,15.08848824,0.0002284,53.2191,178.1684,40.4303,207.4524,0.00028549,4.259e-05,0.0,0 STARLINK-3298,1 50165U 21125K   22104.25001157  .00004259  00000-0  28549-3 0  9999,2 50165  53.2191 178.1684 0002284  40.4303 207.4524 15.08848824 18174,6917.853,95.437,541.298,538.138,0.0
50165.0,STARLINK-3298,PAYLOAD,2022-04-14 14:00:01,15.08844705,0.0002475,53.2192,176.6738,35.2192,224.2731,-0.00095098,-0.00015394,0.0,0 STARLINK-3298,1 50165U 21125K   22104.58334491 -.00015394  00000-0 -95098-3 0  9992,2 50165  53.2192 176.6738 0002475  35.2192 224.2731 15.08844705  3601,6917.866,95.437,541.443,538.019,0.0
50165.0,STARLINK-3298,PAYLOAD,2022-04-14 22:00:00,15.08844701,0.0002275,53.2192,175.176,33.2723,237.8232,-0.0033863,-0.00053788,0.0,0 STARLINK-3298,1 50165U 21125K   22104.91667824 -.00053788  00000-0 -33863-2 0  9998,2 50165  53.2192 175.1760 0002275  33.2723 237.8232 15.08844701 18277,6917.866,95.437,541.305,538.1569999999998,0.0
50165.0,STARLINK-3298,PAYLOAD,2022-04-14 22:23:36,15.0885542,0.0002386,53.2188,175.1019,39.8492,320.2675,0.00027927,4.161e-05,0.0,0 STARLINK-3298,1 50165U 21125K   22104.93305878  .00004161  00000-0  27927-3 0  9992,2 50165  53.2188 175.1019 0002386  39.8492 320.2675 15.08855420 21415,6917.833000000001,95.437,541.349,538.048,0.0
50165.0,STARLINK-3298,PAYLOAD,2022-04-15 06:00:00,15.08832853,0.0002203,53.2194,173.6796,35.3087,247.3679,0.00073215,0.00011381,0.0,0 STARLINK-3298,1 50165U 21125K   22105.25001157  .00011381  00000-0  73215-3 0  9994,2 50165  53.2194 173.6796 0002203  35.3087 247.3679 15.08832853 18320,6917.901999999999,95.438,541.2909999999998,538.243,0.0
50165.0,STARLINK-3298,PAYLOAD,2022-04-15 12:42:05,15.08837057,0.0002222,53.2199,172.4256,39.5288,320.5866,-4.8183e-05,-1.055e-05,0.0,0 STARLINK-3298,1 50165U 21125K   22105.52922662 -.00001055  00000-0 -48183-4 0  9993,2 50165  53.2199 172.4256 0002222  39.5288 320.5866 15.08837057 21500,6917.889,95.438,541.2919999999998,538.217,0.0
50165.0,STARLINK-3298,PAYLOAD,2022-04-15 22:00:00,15.08877372,0.0002204,53.2193,170.6872,29.5565,276.316,-0.0027695,-0.00044142,0.0,0 STARLINK-3298,1 50165U 21125K   22105.91667824 -.00044142  00000-0 -27695-2 0  9999,2 50165  53.2193 170.6872 0002204  29.5565 276.3160 15.08877372  3582,6917.766,95.435,541.156,538.106,0.0
50165.0,STARLINK-3298,PAYLOAD,2022-04-16 14:00:01,15.08785059,0.000238,53.2192,167.6961,28.1804,300.8912,0.0024705,0.00039191,0.0,0 STARLINK-3298,1 50165U 21125K   22106.58334491  .00039191  00000-0  24705-2 0  9999,2 50165  53.2192 167.6961 0002380  28.1804 300.8912 15.08785059 18520,6918.0480000000025,95.441,541.56,538.2669999999998,0.0
50165.0,STARLINK-3298,PAYLOAD,2022-04-16 22:00:01,15.0880714,0.0002194,53.2189,166.1983,29.8062,310.8776,0.00023794,3.497e-05,0.0,0 STARLINK-3298,1 50165U 21125K   22106.91668981  .00003497  00000-0  23794-3 0  9998,2 50165  53.2189 166.1983 0002194  29.8062 310.8776 15.08807140  3597,6917.981,95.44,541.364,538.328,0.0
50165.0,STARLINK-3298,PAYLOAD,2022-04-17 06:00:00,15.08830296,0.0002168,53.219,164.7022,31.7066,320.4637,-0.00079852,-0.00012971,0.0,0 STARLINK-3298,1 50165U 21125K   22107.25001157 -.00012971  00000-0 -79852-3 0  9997,2 50165  53.2190 164.7022 0002168  31.7066 320.4637 15.08830296 18636,6917.91,95.438,541.275,538.275,0.0
50165.0,STARLINK-3298,PAYLOAD,2022-04-17 14:00:01,15.08799532,0.0002387,53.2186,163.2075,29.084,334.6658,0.0028837,0.00045855,0.0,0 STARLINK-3298,1 50165U 21125K   22107.58334491  .00045855  00000-0  28837-2 0  9994,2 50165  53.2186 163.2075 0002387  29.0840 334.6658 15.08799532  3615,6918.004,95.44,541.52,538.2180000000002,0.0
50165.0,STARLINK-3298,PAYLOAD,2022-04-17 22:00:00,15.08821037,0.0002187,53.2183,161.7094,31.2938,344.0291,0.00083598,0.00013035,0.0,0 STARLINK-3298,1 50165U 21125K   22107.91667824  .00013035  00000-0  83598-3 0  9991,2 50165  53.2183 161.7094 0002187  31.2938 344.0291 15.08821037  3576,6917.938,95.439,541.316,538.29,0.0
50165.0,STARLINK-3298,PAYLOAD,2022-04-18 08:00:01,15.08850914,0.000228,53.2181,159.84,32.0995,87.6968,-0.0015155,-0.00024335,0.0,0 STARLINK-3298,1 50165U 21125K   22108.33334491 -.00024335  00000-0 -15155-2 0  9999,2 50165  53.2181 159.8400 0002280  32.0995  87.6968 15.08850914 18796,6917.847,95.437,541.289,538.135,0.0
50165.0,STARLINK-3298,PAYLOAD,2022-04-18 14:00:01,15.08817636,0.0002403,53.2178,158.7186,30.2607,8.2366,0.0029094,0.00046292,0.0,0 STARLINK-3298,1 50165U 21125K   22108.58334491  .00046292  00000-0  29094-2 0  9997,2 50165  53.2178 158.7186 0002403  30.2607   8.2366 15.08817636  3607,6917.949000000001,95.439,541.476,538.151,0.0
50165.0,STARLINK-3298,PAYLOAD,2022-04-18 22:00:00,15.08834894,0.0002211,53.2176,157.2205,33.107,16.9874,0.0013635,0.00021476,0.0,0 STARLINK-3298,1 50165U 21125K   22108.91667824  .00021476  00000-0  13635-2 0  9994,2 50165  53.2176 157.2205 0002211  33.1070  16.9874 15.08834894 18885,6917.896,95.438,541.2909999999998,538.231,0.0
50165.0,STARLINK-3298,PAYLOAD,2022-04-19 14:00:01,15.08842278,0.000244,53.2171,154.2294,30.8108,42.5008,0.0020719,0.00032843,0.0,0 STARLINK-3298,1 50165U 21125K   22109.58334491  .00032843  00000-0  20719-2 0  9990,2 50165  53.2171 154.2294 0002440  30.8108  42.5008 15.08842278  3574,6917.873000000001,95.437,541.4259999999998,538.05,0.0
